[{"OBJECT_NAME":"WGS F9 (USA 275)","OBJECT_ID":"2017-016A","EPOCH":"2026-03-05T22:29:51.613152","MEAN_MOTION":1.00268167,"ECCENTRICITY":8.908e-5,"INCLINATION":0.0234,"RA_OF_ASC_NODE":169.3894,"ARG_OF_PERICENTER":61.281,"MEAN_ANOMALY":258.5037,"EPHEMERIS_TYPE":0,"CLASSIFICATION_TYPE":"U","NORAD_CAT_ID":42075,"ELEMENT_SET_NO":999,"REV_AT_EPOCH":3286,"BSTAR":0,"MEAN_MOTION_DOT":0,"MEAN_MOTION_DDOT":0},{"OBJECT_NAME":"SES-10","OBJECT_ID":"2017-017A","EPOCH":"2026-03-04T08:09:38.820096","MEAN_MOTION":1.00269378,"ECCENTRICITY":0.00026994,"INCLINATION":0.0212,"RA_OF_ASC_NODE":73.6872,"ARG_OF_PERICENTER":276.147,"MEAN_ANOMALY":227.7463,"EPHEMERIS_TYPE":0,"CLASSIFICATION_TYPE":"U","NORAD_CAT_ID":42432,"ELEMENT_SET_NO":999,"REV_AT_EPOCH":3270,"BSTAR":0,"MEAN_MOTION_DOT":-2.84e-6,"MEAN_MOTION_DDOT":0},{"OBJECT_NAME":"CHINASAT 16 (SJ-13)","OBJECT_ID":"2017-018A","EPOCH":"2026-03-06T00:47:28.410144","MEAN_MOTION":1.00270163,"ECCENTRICITY":0.00053458,"INCLINATION":0.0436,"RA_OF_ASC_NODE":98.6193,"ARG_OF_PERICENTER":163.5606,"MEAN_ANOMALY":23.9416,"EPHEMERIS_TYPE":0,"CLASSIFICATION_TYPE":"U","NORAD_CAT_ID":42662,"ELEMENT_SET_NO":999,"REV_AT_EPOCH":3271,"BSTAR":0,"MEAN_MOTION_DOT":-3.58e-6,"MEAN_MOTION_DDOT":0},{"OBJECT_NAME":"KOREASAT 7","OBJECT_ID":"2017-023A","EPOCH":"2026-03-05T18:27:03.881088","MEAN_MOTION":1.00270606,"ECCENTRICITY":0.00017692,"INCLINATION":0.0312,"RA_OF_ASC_NODE":32.8611,"ARG_OF_PERICENTER":337.6843,"MEAN_ANOMALY":185.6035,"EPHEMERIS_TYPE":0,"CLASSIFICATION_TYPE":"U","NORAD_CAT_ID":42691,"ELEMENT_SET_NO":999,"REV_AT_EPOCH":3233,"BSTAR":0,"MEAN_MOTION_DOT":-3.68e-6,"MEAN_MOTION_DDOT":0},{"OBJECT_NAME":"SGDC","OBJECT_ID":"2017-023B","EPOCH":"2026-03-05T18:05:24.448416","MEAN_MOTION":1.00271349,"ECCENTRICITY":0.00028019,"INCLINATION":0.0128,"RA_OF_ASC_NODE":103.4446,"ARG_OF_PERICENTER":258.0573,"MEAN_ANOMALY":358.4702,"EPHEMERIS_TYPE":0,"CLASSIFICATION_TYPE":"U","NORAD_CAT_ID":42692,"ELEMENT_SET_NO":999,"REV_AT_EPOCH":3237,"BSTAR":0,"MEAN_MOTION_DOT":-2.56e-6,"MEAN_MOTION_DDOT":0},{"OBJECT_NAME":"GSAT-9","OBJECT_ID":"2017-024A","EPOCH":"2026-03-06T02:26:26.420352","MEAN_MOTION":1.00270532,"ECCENTRICITY":0.00020423,"INCLINATION":0.1007,"RA_OF_ASC_NODE":282.4366,"ARG_OF_PERICENTER":65.4632,"MEAN_ANOMALY":309.854,"EPHEMERIS_TYPE":0,"CLASSIFICATION_TYPE":"U","NORAD_CAT_ID":42695,"ELEMENT_SET_NO":999,"REV_AT_EPOCH":3226,"BSTAR":0,"MEAN_MOTION_DOT":-2.92e-6,"MEAN_MOTION_DDOT":0},{"OBJECT_NAME":"INMARSAT 5-F4","OBJECT_ID":"2017-025A","EPOCH":"2026-03-05T14:15:55.130112","MEAN_MOTION":1.00271786,"ECCENTRICITY":2.75e-5,"INCLINATION":0.0201,"RA_OF_ASC_NODE":138.0728,"ARG_OF_PERICENTER":220.7007,"MEAN_ANOMALY":75.0124,"EPHEMERIS_TYPE":0,"CLASSIFICATION_TYPE":"U","NORAD_CAT_ID":42698,"ELEMENT_SET_NO":999,"REV_AT_EPOCH":3223,"BSTAR":0,"MEAN_MOTION_DOT":6.8e-7,"MEAN_MOTION_DDOT":0},{"OBJECT_NAME":"SES-15","OBJECT_ID":"2017-026A","EPOCH":"2026-03-05T00:25:38.690688","MEAN_MOTION":1.0027106,"ECCENTRICITY":7.138e-5,"INCLINATION":0.0426,"RA_OF_ASC_NODE":307.9199,"ARG_OF_PERICENTER":39.5952,"MEAN_ANOMALY":52.4724,"EPHEMERIS_TYPE":0,"CLASSIFICATION_TYPE":"U","NORAD_CAT_ID":42709,"ELEMENT_SET_NO":999,"REV_AT_EPOCH":638,"BSTAR":0,"MEAN_MOTION_DOT":5.0e-7,"MEAN_MOTION_DDOT":0},{"OBJECT_NAME":"QZS-2 (MICHIBIKI-2)","OBJECT_ID":"2017-028A","EPOCH":"2026-03-05T17:39:05.611104","MEAN_MOTION":1.00261653,"ECCENTRICITY":0.07454866,"INCLINATION":39.5883,"RA_OF_ASC_NODE":244.6601,"ARG_OF_PERICENTER":270.3415,"MEAN_ANOMALY":54.7958,"EPHEMERIS_TYPE":0,"CLASSIFICATION_TYPE":"U","NORAD_CAT_ID":42738,"ELEMENT_SET_NO":999,"REV_AT_EPOCH":658,"BSTAR":0,"MEAN_MOTION_DOT":-1.7e-6,"MEAN_MOTION_DDOT":0},{"OBJECT_NAME":"VIASAT-2","OBJECT_ID":"2017-029A","EPOCH":"2026-03-05T01:41:06.120672","MEAN_MOTION":1.00271692,"ECCENTRICITY":5.707e-5,"INCLINATION":0.0216,"RA_OF_ASC_NODE":241.0889,"ARG_OF_PERICENTER":139.0997,"MEAN_ANOMALY":97.9902,"EPHEMERIS_TYPE":0,"CLASSIFICATION_TYPE":"U","NORAD_CAT_ID":42740,"ELEMENT_SET_NO":999,"REV_AT_EPOCH":3216,"BSTAR":0,"MEAN_MOTION_DOT":-2.74e-6,"MEAN_MOTION_DDOT":0},{"OBJECT_NAME":"EUTELSAT 172B","OBJECT_ID":"2017-029B","EPOCH":"2026-03-06T06:13:04.687392","MEAN_MOTION":1.0027269,"ECCENTRICITY":7.09e-6,"INCLINATION":0.0215,"RA_OF_ASC_NODE":149.3377,"ARG_OF_PERICENTER":237.4333,"MEAN_ANOMALY":42.4604,"EPHEMERIS_TYPE":0,"CLASSIFICATION_TYPE":"U","NORAD_CAT_ID":42741,"ELEMENT_SET_NO":999,"REV_AT_EPOCH":3270,"BSTAR":0,"MEAN_MOTION_DOT":-1.1e-7,"MEAN_MOTION_DDOT":0},{"OBJECT_NAME":"GSAT-19","OBJECT_ID":"2017-031A","EPOCH":"2026-03-06T05:50:38.914944","MEAN_MOTION":1.00273007,"ECCENTRICITY":0.00045975,"INCLINATION":0.0152,"RA_OF_ASC_NODE":112.997,"ARG_OF_PERICENTER":271.6694,"MEAN_ANOMALY":274.817,"EPHEMERIS_TYPE":0,"CLASSIFICATION_TYPE":"U","NORAD_CAT_ID":42747,"ELEMENT_SET_NO":999,"REV_AT_EPOCH":3211,"BSTAR":0,"MEAN_MOTION_DOT":1.2e-6,"MEAN_MOTION_DDOT":0},{"OBJECT_NAME":"ECHOSTAR 21","OBJECT_ID":"2017-032A","EPOCH":"2026-03-06T05:26:54.115008","MEAN_MOTION":1.00273216,"ECCENTRICITY":0.00026186,"INCLINATION":1.7927,"RA_OF_ASC_NODE":348.9522,"ARG_OF_PERICENTER":344.2849,"MEAN_ANOMALY":282.6766,"EPHEMERIS_TYPE":0,"CLASSIFICATION_TYPE":"U","NORAD_CAT_ID":42749,"ELEMENT_SET_NO":999,"REV_AT_EPOCH":3206,"BSTAR":0,"MEAN_MOTION_DOT":6.1e-7,"MEAN_MOTION_DDOT":0},{"OBJECT_NAME":"BULGARIASAT-1","OBJECT_ID":"2017-038A","EPOCH":"2026-03-05T05:26:51.974016","MEAN_MOTION":1.00271539,"ECCENTRICITY":0.0003287,"INCLINATION":0.0411,"RA_OF_ASC_NODE":260.244,"ARG_OF_PERICENTER":111.8912,"MEAN_ANOMALY":234.4197,"EPHEMERIS_TYPE":0,"CLASSIFICATION_TYPE":"U","NORAD_CAT_ID":42801,"ELEMENT_SET_NO":999,"REV_AT_EPOCH":3179,"BSTAR":0,"MEAN_MOTION_DOT":2.0e-8,"MEAN_MOTION_DDOT":0},{"OBJECT_NAME":"HELLAS-SAT 3","OBJECT_ID":"2017-040A","EPOCH":"2026-03-06T05:26:26.562048","MEAN_MOTION":1.00269617,"ECCENTRICITY":0.00049911,"INCLINATION":0.0571,"RA_OF_ASC_NODE":33.3976,"ARG_OF_PERICENTER":325.1978,"MEAN_ANOMALY":285.9569,"EPHEMERIS_TYPE":0,"CLASSIFICATION_TYPE":"U","NORAD_CAT_ID":42814,"ELEMENT_SET_NO":999,"REV_AT_EPOCH":3177,"BSTAR":0,"MEAN_MOTION_DOT":1.47e-6,"MEAN_MOTION_DDOT":0},{"OBJECT_NAME":"GSAT-17","OBJECT_ID":"2017-040B","EPOCH":"2026-03-05T07:35:32.138016","MEAN_MOTION":1.0026984,"ECCENTRICITY":0.0004948,"INCLINATION":0.0381,"RA_OF_ASC_NODE":296.1388,"ARG_OF_PERICENTER":351.8585,"MEAN_ANOMALY":82.4276,"EPHEMERIS_TYPE":0,"CLASSIFICATION_TYPE":"U","NORAD_CAT_ID":42815,"ELEMENT_SET_NO":999,"REV_AT_EPOCH":3174,"BSTAR":0,"MEAN_MOTION_DOT":-2.66e-6,"MEAN_MOTION_DDOT":0},{"OBJECT_NAME":"INTELSAT 35E (IS-35E)","OBJECT_ID":"2017-041A","EPOCH":"2026-03-05T04:14:38.535360","MEAN_MOTION":1.0027089,"ECCENTRICITY":0.0002225,"INCLINATION":0.0257,"RA_OF_ASC_NODE":241.7413,"ARG_OF_PERICENTER":103.6087,"MEAN_ANOMALY":206.6952,"EPHEMERIS_TYPE":0,"CLASSIFICATION_TYPE":"U","NORAD_CAT_ID":42818,"ELEMENT_SET_NO":999,"REV_AT_EPOCH":3177,"BSTAR":0,"MEAN_MOTION_DOT":-2.47e-6,"MEAN_MOTION_DDOT":0}]
