WGS F9 (USA 275)        
1 42075U 17016A   26064.93740293  .00000000  00000+0  00000+0 0  9996
2 42075   0.0234 169.3894 0000890  61.2810 258.5037  1.00268167 32864
SES-10                  
1 42432U 17017A   26063.34003264 -.00000284  00000+0  00000+0 0  9993
2 42432   0.0212  73.6872 0002699 276.1470 227.7463  1.00269378 32707
CHINASAT 16 (SJ-13)     
1 42662U 17018A   26065.03296771 -.00000358  00000+0  00000+0 0  9996
2 42662   0.0436  98.6193 0005345 163.5606  23.9416  1.00270163 32713
KOREASAT 7              
1 42691U 17023A   26064.76879492 -.00000368  00000+0  00000+0 0  9991
2 42691   0.0312  32.8611 0001769 337.6843 185.6035  1.00270606 32339
SGDC                    
1 42692U 17023B   26064.75375519 -.00000256  00000+0  00000+0 0  9998
2 42692   0.0128 103.4446 0002801 258.0573 358.4702  1.00271349 32370
GSAT-9                  
1 42695U 17024A   26065.10169468 -.00000292  00000+0  00000+0 0  9996
2 42695   0.1007 282.4366 0002042  65.4632 309.8540  1.00270532 32263
INMARSAT 5-F4           
1 42698U 17025A   26064.59438808  .00000068  00000+0  00000+0 0  9999
2 42698   0.0201 138.0728 0000275 220.7007  75.0124  1.00271786 32236
SES-15                  
1 42709U 17026A   26064.01780892  .00000050  00000+0  00000+0 0  9994
2 42709   0.0426 307.9199 0000713  39.5952  52.4724  1.00271060  6386
QZS-2 (MICHIBIKI-2)     
1 42738U 17028A   26064.73548161 -.00000170  00000+0  00000+0 0  9992
2 42738  39.5883 244.6601 0745486 270.3415  54.7958  1.00261653  6582
VIASAT-2                
1 42740U 17029A   26064.07020973 -.00000274  00000+0  00000+0 0  9994
2 42740   0.0216 241.0889 0000570 139.0997  97.9902  1.00271692 32166
EUTELSAT 172B           
1 42741U 17029B   26065.25908203 -.00000011  00000+0  00000+0 0  9996
2 42741   0.0215 149.3377 0000070 237.4333  42.4604  1.00272690 32703
GSAT-19                 
1 42747U 17031A   26065.24350596  .00000120  00000+0  00000+0 0  9990
2 42747   0.0152 112.9970 0004597 271.6694 274.8170  1.00273007 32119
ECHOSTAR 21             
1 42749U 17032A   26065.22701522  .00000061  00000+0  00000+0 0  9994
2 42749   1.7927 348.9522 0002618 344.2849 282.6766  1.00273216 32068
BULGARIASAT-1           
1 42801U 17038A   26064.22699044  .00000002  00000+0  00000+0 0  9998
2 42801   0.0411 260.2440 0003287 111.8912 234.4197  1.00271539 31792
HELLAS-SAT 3            
1 42814U 17040A   26065.22669632  .00000147  00000+0  00000+0 0  9996
2 42814   0.0571  33.3976 0004991 325.1978 285.9569  1.00269617 31777
GSAT-17                 
1 42815U 17040B   26064.31634419 -.00000266  00000+0  00000+0 0  9994
2 42815   0.0381 296.1388 0004948 351.8585  82.4276  1.00269840 31745
INTELSAT 35E (IS-35E)   
1 42818U 17041A   26064.17683490 -.00000247  00000+0  00000+0 0  9994
2 42818   0.0257 241.7413 0002225 103.6087 206.6952  1.00270890 31772
